{"type": "FeatureCollection", "features": [ {"type": "Feature", "properties": {"norad_id": 66530, "name": "STARLINK-35961", "group": "last-30-days", "lat": 15.670566207891683, "lon": 101.05755751126705, "alt_km": 384.020818579389, "timestamp": "2025-12-07T16:44:02.690036+00:00", "meta": {"OBJECT_NAME": "STARLINK-35961", "OBJECT_ID": "2025-265Q", "EPOCH": "2025-12-06T22:00:01.999584", "MEAN_MOTION": 15.63718834, "ECCENTRICITY": 0.00016164, "INCLINATION": 43.0002, "RA_OF_ASC_NODE": 88.1822, "ARG_OF_PERICENTER": 279.265, "MEAN_ANOMALY": 29.4777, "EPHEMERIS_TYPE": 0, "CLASSIFICATION_TYPE": "U", "NORAD_CAT_ID": 66530, "ELEMENT_SET_NO": 999, "REV_AT_EPOCH": 405, "BSTAR": -0.023630784, "MEAN_MOTION_DOT": -0.01995312, "MEAN_MOTION_DDOT": 0}, "tle": {"line1": "1 66530U 25265Q   25340.91668981 -.01995312  00000+0 -23631-1 0  9999", "line2": "2 66530  43.0002  88.1822 0001616 279.2650  29.4777 15.63718834  4056"}}, "geometry": {"type": "Point", "coordinates": [101.05755751126705, 15.670566207891683]}}, {"type": "Feature", "properties": {"norad_id": 66531, "name": "STARLINK-35960", "group": "last-30-days", "lat": 16.913286449849156, "lon": 102.5766963978333, "alt_km": 384.0191101076516, "timestamp": "2025-12-07T16:44:02.690049+00:00", "meta": {"OBJECT_NAME": "STARLINK-35960", "OBJECT_ID": "2025-265R", "EPOCH": "2025-12-06T22:00:01.999584", "MEAN_MOTION": 15.63718285, "ECCENTRICITY": 0.00015468, "INCLINATION": 43.0003, "RA_OF_ASC_NODE": 88.1768, "ARG_OF_PERICENTER": 274.6773, "MEAN_ANOMALY": 35.9848, "EPHEMERIS_TYPE": 0, "CLASSIFICATION_TYPE": "U", "NORAD_CAT_ID": 66531, "ELEMENT_SET_NO": 999, "REV_AT_EPOCH": 405, "BSTAR": -0.023622163, "MEAN_MOTION_DOT": -0.01994581, "MEAN_MOTION_DDOT": 0}, "tle": {"line1": "1 66531U 25265R   25340.91668981 -.01994581  00000+0 -23622-1 0  9997", "line2": "2 66531  43.0003  88.1768 0001546 274.6773  35.9848 15.63718285  4055"}}, "geometry": {"type": "Point", "coordinates": [102.5766963978333, 16.913286449849156]}}, {"type": "Feature", "properties": {"norad_id": 66532, "name": "STARLINK-35914", "group": "last-30-days", "lat": 18.14107942254658, "lon": 104.11256695899067, "alt_km": 383.7493526670105, "timestamp": "2025-12-07T16:44:02.690059+00:00", "meta": {"OBJECT_NAME": "STARLINK-35914", "OBJECT_ID": "2025-265S", "EPOCH": "2025-12-06T22:00:01.999584", "MEAN_MOTION": 15.6371803, "ECCENTRICITY": 0.00016046, "INCLINATION": 43.0001, "RA_OF_ASC_NODE": 88.1722, "ARG_OF_PERICENTER": 279.0645, "MEAN_ANOMALY": 33.5152, "EPHEMERIS_TYPE": 0, "CLASSIFICATION_TYPE": "U", "NORAD_CAT_ID": 66532, "ELEMENT_SET_NO": 999, "REV_AT_EPOCH": 405, "BSTAR": -0.023646697, "MEAN_MOTION_DOT": -0.01996426, "MEAN_MOTION_DDOT": 0}, "tle": {"line1": "1 66532U 25265S   25340.91668981 -.01996426  00000+0 -23647-1 0  9995", "line2": "2 66532  43.0001  88.1722 0001604 279.0645  33.5152 15.63718030  4056"}}, "geometry": {"type": "Point", "coordinates": [104.11256695899067, 18.14107942254658]}}, {"type": "Feature", "properties": {"norad_id": 66533, "name": "STARLINK-35707", "group": "last-30-days", "lat": 19.359793696114444, "lon": 105.67452128294302, "alt_km": 383.6407936592077, "timestamp": "2025-12-07T16:44:02.690069+00:00", "meta": {"OBJECT_NAME": "STARLINK-35707", "OBJECT_ID": "2025-265T", "EPOCH": "2025-12-06T22:00:01.999584", "MEAN_MOTION": 15.63719485, "ECCENTRICITY": 0.00016717, "INCLINATION": 43.0001, "RA_OF_ASC_NODE": 88.1678, "ARG_OF_PERICENTER": 278.528, "MEAN_ANOMALY": 35.9668, "EPHEMERIS_TYPE": 0, "CLASSIFICATION_TYPE": "U", "NORAD_CAT_ID": 66533, "ELEMENT_SET_NO": 999, "REV_AT_EPOCH": 405, "BSTAR": -0.023653685, "MEAN_MOTION_DOT": -0.01997098, "MEAN_MOTION_DDOT": 0}, "tle": {"line1": "1 66533U 25265T   25340.91668981 -.01997098  00000+0 -23654-1 0  9990", "line2": "2 66533  43.0001  88.1678 0001671 278.5280  35.9668 15.63719485  4053"}}, "geometry": {"type": "Point", "coordinates": [105.67452128294302, 19.359793696114444]}}, {"type": "Feature", "properties": {"norad_id": 66534, "name": "STARLINK-35976", "group": "last-30-days", "lat": 20.56356077331255, "lon": 107.25780725259204, "alt_km": 383.45559283302373, "timestamp": "2025-12-07T16:44:02.690079+00:00", "meta": {"OBJECT_NAME": "STARLINK-35976", "OBJECT_ID": "2025-265U", "EPOCH": "2025-12-06T22:00:01.999584", "MEAN_MOTION": 15.63720064, "ECCENTRICITY": 0.00016472, "INCLINATION": 43.0005, "RA_OF_ASC_NODE": 88.1634, "ARG_OF_PERICENTER": 279.7443, "MEAN_ANOMALY": 36.6672, "EPHEMERIS_TYPE": 0, "CLASSIFICATION_TYPE": "U", "NORAD_CAT_ID": 66534, "ELEMENT_SET_NO": 999, "REV_AT_EPOCH": 405, "BSTAR": -0.023664821, "MEAN_MOTION_DOT": -0.01997944, "MEAN_MOTION_DDOT": 0}, "tle": {"line1": "1 66534U 25265U   25340.91668981 -.01997944  00000+0 -23665-1 0  9993", "line2": "2 66534  43.0005  88.1634 0001647 279.7443  36.6672 15.63720064  4055"}}, "geometry": {"type": "Point", "coordinates": [107.25780725259204, 20.56356077331255]}}, {"type": "Feature", "properties": {"norad_id": 66535, "name": "STARLINK-35514", "group": "last-30-days", "lat": 21.75540838019117, "lon": 108.8696721743584, "alt_km": 383.27212040811446, "timestamp": "2025-12-07T16:44:02.690091+00:00", "meta": {"OBJECT_NAME": "STARLINK-35514", "OBJECT_ID": "2025-265V", "EPOCH": "2025-12-06T22:00:01.999584", "MEAN_MOTION": 15.63718315, "ECCENTRICITY": 0.00016853, "INCLINATION": 43.0004, "RA_OF_ASC_NODE": 88.1583, "ARG_OF_PERICENTER": 281.0074, "MEAN_ANOMALY": 37.321, "EPHEMERIS_TYPE": 0, "CLASSIFICATION_TYPE": "U", "NORAD_CAT_ID": 66535, "ELEMENT_SET_NO": 999, "REV_AT_EPOCH": 405, "BSTAR": -0.023625035, "MEAN_MOTION_DOT": -0.01994903, "MEAN_MOTION_DDOT": 0}, "tle": {"line1": "1 66535U 25265V   25340.91668981 -.01994903  00000+0 -23625-1 0  9992", "line2": "2 66535  43.0004  88.1583 0001685 281.0074  37.3210 15.63718315  4058"}}, "geometry": {"type": "Point", "coordinates": [108.8696721743584, 21.75540838019117]}}, {"type": "Feature", "properties": {"norad_id": 66536, "name": "STARLINK-35640", "group": "last-30-days", "lat": 22.929502751058912, "lon": 110.50678813957491, "alt_km": 383.1470537645282, "timestamp": "2025-12-07T16:44:02.690101+00:00", "meta": {"OBJECT_NAME": "STARLINK-35640", "OBJECT_ID": "2025-265W", "EPOCH": "2025-12-06T22:00:01.999584", "MEAN_MOTION": 15.63720612, "ECCENTRICITY": 0.00016722, "INCLINATION": 43, "RA_OF_ASC_NODE": 88.1538, "ARG_OF_PERICENTER": 280.5444, "MEAN_ANOMALY": 39.6982, "EPHEMERIS_TYPE": 0, "CLASSIFICATION_TYPE": "U", "NORAD_CAT_ID": 66536, "ELEMENT_SET_NO": 999, "REV_AT_EPOCH": 403, "BSTAR": -0.02363742, "MEAN_MOTION_DOT": -0.01995972, "MEAN_MOTION_DDOT": 0}, "tle": {"line1": "1 66536U 25265W   25340.91668981 -.01995972  00000+0 -23637-1 0  9993", "line2": "2 66536  43.0000  88.1538 0001672 280.5444  39.6982 15.63720612  4038"}}, "geometry": {"type": "Point", "coordinates": [110.50678813957491, 22.929502751058912]}}, {"type": "Feature", "properties": {"norad_id": 66537, "name": "STARLINK-35582", "group": "last-30-days", "lat": 24.08467906861058, "lon": 112.16868576260791, "alt_km": 383.14143052996315, "timestamp": "2025-12-07T16:44:02.690117+00:00", "meta": {"OBJECT_NAME": "STARLINK-35582", "OBJECT_ID": "2025-265X", "EPOCH": "2025-12-06T22:00:01.999584", "MEAN_MOTION": 15.63721026, "ECCENTRICITY": 0.00016852, "INCLINATION": 43.0003, "RA_OF_ASC_NODE": 88.1488, "ARG_OF_PERICENTER": 277.2017, "MEAN_ANOMALY": 44.9605, "EPHEMERIS_TYPE": 0, "CLASSIFICATION_TYPE": "U", "NORAD_CAT_ID": 66537, "ELEMENT_SET_NO": 999, "REV_AT_EPOCH": 405, "BSTAR": -0.023666848, "MEAN_MOTION_DOT": -0.01998191, "MEAN_MOTION_DDOT": 0}, "tle": {"line1": "1 66537U 25265X   25340.91668981 -.01998191  00000+0 -23667-1 0  9993", "line2": "2 66537  43.0003  88.1488 0001685 277.2017  44.9605 15.63721026  4052"}}, "geometry": {"type": "Point", "coordinates": [112.16868576260791, 24.08467906861058]}}, {"type": "Feature", "properties": {"norad_id": 66538, "name": "STARLINK-35577", "group": "last-30-days", "lat": 25.224823920978956, "lon": 113.86583400586072, "alt_km": 382.8876858256208, "timestamp": "2025-12-07T16:44:02.690129+00:00", "meta": {"OBJECT_NAME": "STARLINK-35577", "OBJECT_ID": "2025-265Y", "EPOCH": "2025-12-06T22:00:01.999584", "MEAN_MOTION": 15.63718958, "ECCENTRICITY": 0.00017247, "INCLINATION": 43.0004, "RA_OF_ASC_NODE": 88.1437, "ARG_OF_PERICENTER": 280.8142, "MEAN_ANOMALY": 43.2649, "EPHEMERIS_TYPE": 0, "CLASSIFICATION_TYPE": "U", "NORAD_CAT_ID": 66538, "ELEMENT_SET_NO": 999, "REV_AT_EPOCH": 405, "BSTAR": -0.023626895, "MEAN_MOTION_DOT": -0.01995117, "MEAN_MOTION_DDOT": 0}, "tle": {"line1": "1 66538U 25265Y   25340.91668981 -.01995117  00000+0 -23627-1 0  9995", "line2": "2 66538  43.0004  88.1437 0001724 280.8142  43.2649 15.63718958  4051"}}, "geometry": {"type": "Point", "coordinates": [113.86583400586072, 25.224823920978956]}}, {"type": "Feature", "properties": {"norad_id": 66539, "name": "STARLINK-35697", "group": "last-30-days", "lat": 26.34173002344496, "lon": 115.58949488847502, "alt_km": 382.785121697877, "timestamp": "2025-12-07T16:44:02.690164+00:00", "meta": {"OBJECT_NAME": "STARLINK-35697", "OBJECT_ID": "2025-265Z", "EPOCH": "2025-12-06T22:00:01.999584", "MEAN_MOTION": 15.63720117, "ECCENTRICITY": 0.00016238, "INCLINATION": 43.0005, "RA_OF_ASC_NODE": 88.1385, "ARG_OF_PERICENTER": 279.178, "MEAN_ANOMALY": 46.8188, "EPHEMERIS_TYPE": 0, "CLASSIFICATION_TYPE": "U", "NORAD_CAT_ID": 66539, "ELEMENT_SET_NO": 999, "REV_AT_EPOCH": 405, "BSTAR": -0.023652661, "MEAN_MOTION_DOT": -0.01997028, "MEAN_MOTION_DDOT": 0}, "tle": {"line1": "1 66539U 25265Z   25340.91668981 -.01997028  00000+0 -23653-1 0  9998", "line2": "2 66539  43.0005  88.1385 0001623 279.1780  46.8188 15.63720117  4059"}}, "geometry": {"type": "Point", "coordinates": [115.58949488847502, 26.34173002344496]}}]}